[{"OBJECT_NAME":"STARLINK-34552","OBJECT_ID":"2025-144H","EPOCH":"2026-03-09T14:48:10.593792","MEAN_MOTION":15.30186444,"ECCENTRICITY":0.0001213,"INCLINATION":53.1592,"RA_OF_ASC_NODE":181.1704,"ARG_OF_PERICENTER":73.7979,"MEAN_ANOMALY":286.3155,"EPHEMERIS_TYPE":0,"CLASSIFICATION_TYPE":"U","NORAD_CAT_ID":64731,"ELEMENT_SET_NO":999,"REV_AT_EPOCH":3970,"BSTAR":0.0012103,"MEAN_MOTION_DOT":0.00035644,"MEAN_MOTION_DDOT":0},{"OBJECT_NAME":"FENGYUN 1C DEB","OBJECT_ID":"1999-025BZU","EPOCH":"2026-03-09T17:19:51.665664","MEAN_MOTION":15.28412118,"ECCENTRICITY":0.00188802,"INCLINATION":98.9598,"RA_OF_ASC_NODE":354.2029,"ARG_OF_PERICENTER":82.3682,"MEAN_ANOMALY":277.9697,"EPHEMERIS_TYPE":0,"CLASSIFICATION_TYPE":"U","NORAD_CAT_ID":31614,"ELEMENT_SET_NO":999,"REV_AT_EPOCH":97742,"BSTAR":0.011500831,"MEAN_MOTION_DOT":0.0033373,"MEAN_MOTION_DDOT":0}]
